GLOBALSTAR M080         
1 38041U 11080B   26193.50375738 -.00000088  00000+0  89222-4 0  9998
2 38041  52.0063 301.9378 0000328  82.4207 358.7321 12.62257343672088
GLOBALSTAR M082         
1 38042U 11080C   26194.22175647 -.00000073  00000+0  17334-3 0  9994
2 38042  52.0061 255.2568 0000196 103.1812 292.1236 12.62264101672889
GLOBALSTAR M092         
1 38043U 11080D   26193.90755948 -.00000089  00000+0  82783-4 0  9995
2 38043  52.0104 346.6100 0000814  99.7089  66.4770 12.62267739671297
GLOBALSTAR M090         
1 38044U 11080E   26191.23949641 -.00000081  00000+0  12812-3 0  9992
2 38044  52.0114 258.2983 0000451 107.2704 288.2798 12.62253056672621
GLOBALSTAR M086         
1 38045U 11080F   26194.19008640 -.00000079  00000+0  14081-3 0  9993
2 38045  51.9878 249.2035 0001552 109.1563 284.4713 12.62287707672942
GLOBALSTAR M097         
1 39072U 13005A   26194.29363462 -.00000118  00000+0 -80269-4 0  9997
2 39072  52.0026 163.8647 0000382  37.5413 322.5481 12.62271431620203
GLOBALSTAR M093         
1 39073U 13005B   26194.26686013 -.00000115  00000+0 -59923-4 0  9995
2 39073  52.0087 157.3029 0000607  41.5808 318.5105 12.62266344620155
GLOBALSTAR M094         
1 39074U 13005C   26193.87079164 -.00000121  00000+0 -95421-4 0  9995
2 39074  51.9967  72.6003 0000948  58.2720 301.8239 12.62264077621715
GLOBALSTAR M096         
1 39075U 13005D   26194.20105698 -.00000117  00000+0 -75049-4 0  9995
2 39075  52.0067 120.4160 0000702  38.1669 321.9247 12.62265679620677
GLOBALSTAR M078         
1 39076U 13005E   26193.06559569 -.00000083  00000+0  11342-3 0  9995
2 39076  51.9843 207.8490 0000758 328.5209  31.5612 12.62260125619153
GLOBALSTAR M095         
1 39077U 13005F   26193.40901959 -.00000081  00000+0  12839-3 0  9998
2 39077  52.0054 204.4426 0000352  10.4758 349.6116 12.62264177619050
GLOBALSTAR M087         
1 52888U 22064A   26193.58051144 -.00000103  00000+0  31520-5 0  9994
2 52888  52.0015 345.1442 0000929  82.3508 277.7464 12.62269324194340
